RESURS-DK 1             
1 29228U 06021A   26188.26242769  .00001509  00000+0  90655-4 0  9998
2 29228  69.9330 287.5844 0006734 279.9257  80.1149 15.13300743105617
CZ-4B R/B               
1 29507U 06046C   26188.75532340  .00002829  00000+0  14108-3 0  9990
2 29507  97.5441 233.2990 0031836 208.2062 151.7448 15.17942177 78250
CZ-2C R/B               
1 31114U 07010B   26188.77174971  .00000058  00000+0  45747-4 0  9999
2 31114  98.4114 296.1175 0057941 305.7847  53.7952 14.20280614996766
COSMO-SKYMED 1          
1 31598U 07023A   26188.85382309  .00001424  00000+0  12832-3 0  9990
2 31598  97.8849  20.8846 0000980  90.6607 269.4727 14.97198359 32880
COSMOS 2428             
1 31792U 07029A   26188.74530744  .00000153  00000+0  10755-3 0  9998
2 31792  70.9381 311.3125 0007170  95.5204 264.6735 14.12930752981058
SL-16 R/B               
1 31793U 07029B   26188.69334816 -.00000171  00000+0 -63866-4 0  9999
2 31793  70.9756 280.1226 0002185 258.3678 215.1021 14.14851020982349
KORONAS-FOTON           
1 33504U 09003A   26188.79145617  .00008309  00000+0  16809-3 0  9998
2 33504  82.4299 150.7589 0012573  85.1057 275.1627 15.46171116964282
CZ-2C R/B               
1 37731U 11030B   26188.77585957  .00000976  00000+0  12866-3 0  9991
2 37731  97.8664 143.7920 0051239 320.9043  99.9332 14.81522073807878
H-2A R/B                
1 38341U 12025E   26188.49325656  .00002255  00000+0  20469-3 0  9991
2 38341  98.4844 165.3151 0042100 281.0798  78.5688 14.95821898766121
SHIJIAN-16 (SJ-16)      
1 39358U 13057A   26188.88353051  .00000882  00000+0  88227-4 0  9990
2 39358  74.9740 317.4832 0016097 182.3881 177.7233 14.92656579689437
SL-4 R/B                
1 39679U 14021B   26188.73542769  .00007735  00000+0  16129-3 0  9993
2 39679  51.6052 110.0749 0090152 181.0611 179.0197 15.42375906674780
ALOS-2                  
1 39766U 14029A   26188.83482654  .00001453  00000+0  20141-3 0  9995
2 39766  97.9222 285.7037 0001594  91.2035 268.9359 14.79472480654637
YAOGAN-29               
1 41038U 15069A   26188.89039762 -.00000137  00000+0 -10162-4 0  9992
2 41038  98.0021 217.5547 0001285  21.0400 339.0866 14.83100649573693
ASTRO-H (HITOMI)        
1 41337U 16012A   26188.45252774  .00002149  00000+0  12121-3 0  9994
2 41337  30.9999 303.3012 0009537  97.0215 263.1509 15.10610268570355
HXMT (HUIYAN)           
1 42758U 17034A   26188.85359946  .00003311  00000+0  16635-3 0  9996
2 42758  43.0143  67.9514 0032750 276.0378  83.6739 15.18643931500805
SAOCOM 1A               
1 43641U 18076A   26188.86175579  .00000219  00000+0  34061-4 0  9992
2 43641  97.8890  15.3098 0001497  80.4356 279.7026 14.82163616419166
H-2A R/B                
1 43682U 18084L   26188.71632990  .00014750  00000+0  30222-3 0  9994
2 43682  98.8545  72.1024 0020955 328.2628  31.7352 15.45992392424293
SAOCOM 1B               
1 46265U 20059A   26188.82548600  .00000944  00000+0  12513-3 0  9998
2 46265  97.8896  14.3700 0001612  80.7943 279.3453 14.82157633316540
CSS (TIANHE)            
1 48274U 21035A   26188.71526333  .00008323  00000+0  11198-3 0  9999
2 48274  41.4678 197.1676 0002967 274.9707  85.0792 15.58032039296378
COSMOS 2550             
1 48865U 21056A   26188.89066778  .00000861  00000+0  32036-4 0  9993
2 48865  67.1432  37.2794 0008437 272.2391  87.7797 15.33775522281899
CZ-2C R/B               
1 52794U 22058K   26187.93861576  .00033068  00000+0  34776-3 0  9992
2 52794  50.1851  60.6377 0030986 348.4599  11.5661 15.63350675228739
CZ-2C R/B               
1 54039U 22132E   26188.76670874  .00051504  00000+0  35752-3 0  9990
2 54039  97.2903 196.7465 0011023  13.4856 346.6701 15.74217147209181
GSLV R/B                
1 54149U 22138AN  26188.76883490  .00002587  00000+0  21912-3 0  9998
2 54149  87.3813 126.0728 0024123  76.4640 283.9277 14.97359726201891
XRISM                   
1 57800U 23137A   26188.51592358  .00002494  00000+0  13373-3 0  9997
2 57800  31.0012 227.9044 0007812 169.3138 190.7668 15.12636757155940
ACS3                    
1 59588U 24077B   26188.72484260  .00029045  00000+0  20273-1 0  9997
2 59588  97.1724 102.9526 0114374  45.1159 315.9225 13.95302657110906
SPACEMOBILE-003         
1 61045U 24163A   26188.58983397  .00000822  00000+0  51476-4 0  9997
2 61045  52.9711 215.6104 0005935 173.0520 187.0558 15.20789545100878
SPACEMOBILE-005         
1 61046U 24163B   26188.57326854  .00003400  00000+0  16697-3 0  9996
2 61046  52.9812 215.6355 0007892 171.2745 188.8388 15.20769377100862
SPACEMOBILE-001         
1 61047U 24163C   26188.50607942  .00001273  00000+0  71651-4 0  9998
2 61047  52.9752 215.6585 0007752 171.0836 189.0297 15.20810880100852
SPACEMOBILE-002         
1 61048U 24163D   26188.55582850  .00002498  00000+0  12630-3 0  9995
2 61048  52.9752 215.4702 0007330 175.4334 184.6729 15.20854546100864
SPACEMOBILE-004         
1 61049U 24163E   26187.48682539  .00011231  00000+0  51661-3 0  9994
2 61049  52.9667 220.1743 0007073 196.8401 163.2360 15.20801145100708
