OBJECT_NAME,OBJECT_ID,EPOCH,MEAN_MOTION,ECCENTRICITY,INCLINATION,RA_OF_ASC_NODE,ARG_OF_PERICENTER,MEAN_ANOMALY,EPHEMERIS_TYPE,CLASSIFICATION_TYPE,NORAD_CAT_ID,ELEMENT_SET_NO,REV_AT_EPOCH,BSTAR,MEAN_MOTION_DOT,MEAN_MOTION_DDOT
RESURS-DK 1,2006-021A,2026-07-07T06:17:53.752416,15.13300743,.00067347,69.9330,287.5844,279.9257,80.1149,0,U,29228,999,10561,.9065456E-4,.1509E-4,0
CZ-4B R/B,2006-046C,2026-07-07T18:07:39.941760,15.17942177,.0031836,97.5441,233.2990,208.2062,151.7448,0,U,29507,999,7825,.14108E-3,.2829E-4,0
CZ-2C R/B,2007-010B,2026-07-07T18:31:19.174944,14.20280614,.0057941,98.4114,296.1175,305.7847,53.7952,0,U,31114,999,99676,.45747E-4,.58E-6,0
COSMO-SKYMED 1,2007-023A,2026-07-07T20:29:30.314976,14.97198359,.000098,97.8849,20.8846,90.6607,269.4727,0,U,31598,999,3288,.12832E-3,.1424E-4,0
COSMOS 2428,2007-029A,2026-07-07T17:53:14.562816,14.12930752,.000717,70.9381,311.3125,95.5204,264.6735,0,U,31792,999,98105,.10755E-3,.153E-5,0
SL-16 R/B,2007-029B,2026-07-07T16:38:25.281024,14.14851020,.0002185,70.9756,280.1226,258.3678,215.1021,0,U,31793,999,98234,-.63866E-4,-.171E-5,0
KORONAS-FOTON,2009-003A,2026-07-07T18:59:41.813088,15.46171116,.0012573,82.4299,150.7589,85.1057,275.1627,0,U,33504,999,96428,.16809E-3,.8309E-4,0
CZ-2C R/B,2011-030B,2026-07-07T18:37:14.266848,14.81522073,.0051239,97.8664,143.7920,320.9043,99.9332,0,U,37731,999,80787,.12866E-3,.976E-5,0
H-2A R/B,2012-025E,2026-07-07T11:50:17.366784,14.95821898,.00421004,98.4844,165.3151,281.0798,78.5688,0,U,38341,999,76612,.20469202E-3,.2255E-4,0
SHIJIAN-16 (SJ-16),2013-057A,2026-07-07T21:12:17.036064,14.92656579,.0016097,74.9740,317.4832,182.3881,177.7233,0,U,39358,999,68943,.88227E-4,.882E-5,0
SL-4 R/B,2014-021B,2026-07-07T17:39:00.952416,15.42375906,.0090152,51.6052,110.0749,181.0611,179.0197,0,U,39679,999,67478,.16129E-3,.7735E-4,0
ALOS-2,2014-029A,2026-07-07T20:02:09.013056,14.79472480,.0001594,97.9222,285.7037,91.2035,268.9359,0,U,39766,999,65463,.20141E-3,.1453E-4,0
YAOGAN-29,2015-069A,2026-07-07T21:22:10.354368,14.83100649,.0001285,98.0021,217.5547,21.0400,339.0866,0,U,41038,999,57369,-.10162E-4,-.137E-5,0
ASTRO-H (HITOMI),2016-012A,2026-07-07T10:51:38.396736,15.10610268,.00095371,30.9999,303.3012,97.0215,263.1509,0,U,41337,999,57035,.12121116E-3,.2149E-4,0
HXMT (HUIYAN),2017-034A,2026-07-07T20:29:10.993344,15.18643931,.003275,43.0143,67.9514,276.0378,83.6739,0,U,42758,999,50080,.16635E-3,.3311E-4,0
SAOCOM 1A,2018-076A,2026-07-07T20:40:55.700256,14.82163616,.0001497,97.8890,15.3098,80.4356,279.7026,0,U,43641,999,41916,.34061E-4,.219E-5,0
H-2A R/B,2018-084L,2026-07-07T17:11:30.903360,15.45992392,.0020955,98.8545,72.1024,328.2628,31.7352,0,U,43682,999,42429,.30222E-3,.1475E-3,0
SAOCOM 1B,2020-059A,2026-07-07T19:48:41.990400,14.82157633,.0001612,97.8896,14.3700,80.7943,279.3453,0,U,46265,999,31654,.12513E-3,.944E-5,0
CSS (TIANHE),2021-035A,2026-07-07T17:09:58.751712,15.58032039,.0002967,41.4678,197.1676,274.9707,85.0792,0,U,48274,999,29637,.11198E-3,.8323E-4,0
COSMOS 2550,2021-056A,2026-07-07T21:22:33.696192,15.33775522,.0008437,67.1432,37.2794,272.2391,87.7797,0,U,48865,999,28189,.32036E-4,.861E-5,0
CZ-2C R/B,2022-058K,2026-07-06T22:31:36.401664,15.63350675,.00309869,50.1851,60.6377,348.4599,11.5661,0,U,52794,999,22873,.34776051E-3,.33068E-3,0
CZ-2C R/B,2022-132E,2026-07-07T18:24:03.635136,15.74217147,.0011023,97.2903,196.7465,13.4856,346.6701,0,U,54039,999,20918,.35752E-3,.51504E-3,0
GSLV R/B,2022-138AN,2026-07-07T18:27:07.335360,14.97359726,.0024123,87.3813,126.0728,76.4640,283.9277,0,U,54149,999,20189,.21912E-3,.2587E-4,0
XRISM,2023-137A,2026-07-07T12:22:55.797312,15.12636757,.0007812,31.0012,227.9044,169.3138,190.7668,0,U,57800,999,15594,.13373E-3,.2494E-4,0
ACS3,2024-077B,2026-07-07T17:23:46.400640,13.95302657,.0114374,97.1724,102.9526,45.1159,315.9225,0,U,59588,999,11090,.20273E-1,.29045E-3,0
SPACEMOBILE-003,2024-163A,2026-07-07T14:09:21.655008,15.20789545,.0005935,52.9711,215.6104,173.0520,187.0558,0,U,61045,999,10087,.51476E-4,.822E-5,0
SPACEMOBILE-005,2024-163B,2026-07-07T13:45:30.401856,15.20769377,.0007892,52.9812,215.6355,171.2745,188.8388,0,U,61046,999,10086,.16697E-3,.34E-4,0
SPACEMOBILE-001,2024-163C,2026-07-07T12:08:45.261888,15.20810880,.0007752,52.9752,215.6585,171.0836,189.0297,0,U,61047,999,10085,.71651E-4,.1273E-4,0
SPACEMOBILE-002,2024-163D,2026-07-07T13:20:23.582400,15.20854546,.000733,52.9752,215.4702,175.4334,184.6729,0,U,61048,999,10086,.1263E-3,.2498E-4,0
SPACEMOBILE-004,2024-163E,2026-07-06T11:41:01.713696,15.20801145,.0007073,52.9667,220.1743,196.8401,163.2360,0,U,61049,999,10070,.51660541E-3,.11231E-3,0
